CUTE-1 (CO-55)          
1 27844U 03031E   24014.55705581  .00000721  00000+0  33922-3 0  9990
2 27844  98.6787  23.7564 0008910 229.4899 130.5503 14.23035341 65790
CUBESAT XI-IV (CO-57)   
1 27848U 03031J   24014.57296993  .00000620  00000+0  29719-3 0  9995
2 27848  98.6821  24.0977 0008683 246.4385 113.5882 14.22510124 65552
CUBESAT XI-V            
1 28895U 05043F   24014.36369928  .00003418  00000+0  62147-3 0  9999
2 28895  98.1782 150.3215 0016937 124.4789 235.8017 14.66709001971756
CUTE-1.7+APD II (CO-65) 
1 32785U 08021C   24014.53563782  .00007252  00000+0  67521-3 0  9995
2 32785  97.7367 341.6207 0013187 116.0580 244.1999 14.94519752852437
AAUSAT-II               
1 32788U 08021F   24014.47713202  .00021394  00000+0  13140-2 0  9995
2 32788  97.5829 355.3192 0007031  12.0251 348.1144 15.10084431854920
SEEDS II (CO-66)        
1 32791U 08021J   24014.44051190  .00011139  00000+0  89422-3 0  9990
2 32791  97.6800 347.0575 0009824  75.9430 284.2885 15.00194338853294
SWISSCUBE               
1 35932U 09051B   24014.62485621  .00002274  00000+0  50057-3 0  9996
2 35932  98.4927 254.7289 0008536  75.7894 284.4252 14.58425635760027
BEESAT-1                
1 35933U 09051C   24014.60595423  .00001954  00000+0  43355-3 0  9994
2 35933  98.4856 255.8085 0006813  87.0803 273.1175 14.58244133760095
ITUPSAT1                
1 35935U 09051E   24014.64979738  .00001797  00000+0  40814-3 0  9997
2 35935  98.4956 255.7136 0009084  92.1854 268.0384 14.57246054759782
TISAT 1                 
1 36799U 10035E   24014.60504235  .00011204  00000+0  92049-3 0  9993
2 36799  98.1045 257.5709 0009316   3.2049 356.9231 14.99321090734073
M-CUBED & EXP-1 PRIME   
1 37855U 11061F   24014.77206438  .00076399  00000+0  14980-2 0  9992
2 37855 101.6893 103.9046 0083572 104.8019 256.2490 15.43287938669468
AEROCUBE 4.5A           
1 38767U 12048K   24014.53872039  .00011166  00000+0  70079-3 0  9994
2 38767  64.6627  89.3550 0103312  75.5892 285.6666 15.05290351237158
AEROCUBE 4.5B           
1 38768U 12048L   24014.42827855  .00022706  00000+0  10953-2 0  9995
2 38768  64.6631  24.7423 0082618  65.0431 295.9247 15.15679058237902
STRAND-1                
1 39090U 13009E   24014.51794162  .00000724  00000+0  26449-3 0  9990
2 39090  98.3798 207.0597 0008878   1.6366 358.4848 14.35846861570042
BRITE-AUSTRIA           
1 39091U 13009F   24014.46909672  .00000472  00000+0  17814-3 0  9995
2 39091  98.3834 206.2687 0010556   7.8114 352.3235 14.35653276570061
BEESAT-2                
1 39136U 13015G   24014.31153489  .00531051  00000+0  20387-2 0  9993
2 39136  64.8513 348.0181 0007090 278.0007  82.0348 15.85773910594498
NEE-01 PEGASO           
1 39151U 13018B   24014.77841547  .00005215  00000+0  62687-3 0  9990
2 39151  98.0220 130.7314 0015569 179.0494 181.0753 14.84310247579067
ESTCUBE 1               
1 39161U 13021C   24014.69571004  .00003428  00000+0  51179-3 0  9992
2 39161  97.8491  85.8437 0009383  17.2670 342.8857 14.75399360574348
POPACS 1                
1 39268U 13055D   24014.18429576  .00030372  00000+0  60205-3 0  9995
2 39268  80.9889 327.4749 0450295 226.5952 129.6948 14.80978795537512
POPACS 2                
1 39269U 13055E   24013.52449326  .00015340  00000+0  36808-3 0  9998
2 39269  81.0031  47.5797 0578162  75.7195 290.7464 14.50295637532987
POPACS 3                
1 39270U 13055F   24014.18346319  .00017028  00000+0  48263-3 0  9994
2 39270  81.0108  92.7164 0644668 202.3647 154.8238 14.32781883510730
ZACUBE-1 (TSHEPISOSAT)  
1 39417U 13066B   24014.87494574  .00008500  00000+0  92872-3 0  9992
2 39417  97.7157 334.7526 0051509 311.7389  47.9428 14.87138721548636
WNISAT-1                
1 39423U 13066H   24014.56195820  .00001662  00000+0  32693-3 0  9994
2 39423  97.6781 221.3770 0172193 134.2268 227.3220 14.54750478538168
TRITON-1                
1 39427U 13066M   24014.74727520  .00004698  00000+0  68448-3 0  9995
2 39427  97.8430 297.8926 0104080 218.3464 141.0313 14.72641884543664
DELFI-N3XT              
1 39428U 13066N   24014.37474948  .00008232  00000+0  11144-2 0  9996
2 39428  97.8397 297.1345 0104115 229.0460 130.1705 14.75483269543241
GOMX-1                  
1 39430U 13066Q   24014.74893524  .00004337  00000+0  73686-3 0  9997
2 39430  97.7539 258.3923 0143440  23.7798 336.9946 14.63034452540455
CUBEBUG-2 (LO-74)       
1 39440U 13066AA  24014.80348426  .00007721  00000+0  94772-3 0  9990
2 39440  97.7989 322.1927 0074059  58.8026 302.0419 14.81390374546667
NEE-02 KRYSAOR          
1 39441U 13066AB  24014.35744106  .00003976  00000+0  52077-3 0  9996
2 39441  97.8090 318.1383 0077810  79.1298 281.8658 14.78799422545041
FUNCUBE-1 (AO-73)       
1 39444U 13066AE  24014.82956716  .00010682  00000+0  11040-2 0  9999
2 39444  97.7014 337.5118 0048901 294.3859  65.2259 14.89407092547700
UWE-3                   
1 39446U 13066AG  24014.41676626  .00008076  00000+0  94019-3 0  9997
2 39446  97.7642 327.8883 0063347   9.1643 351.0711 14.84079009545732
BRITE-CA1 (TORONTO)     
1 40020U 14033L   24014.34041069  .00002839  00000+0  47069-3 0  9995
2 40020  97.8519 157.2314 0083273 225.9019 133.5314 14.68720235512131
DUCHIFAT-1              
1 40021U 14033M   24014.48660816  .00015531  00000+0  11733-2 0  9999
2 40021  98.0751 351.1396 0012519 263.6203  96.3595 15.02419852520862
NANOSATC-BR1            
1 40024U 14033Q   24014.45576341  .00012696  00000+0  10350-2 0  9991
2 40024  98.0592 340.7275 0007731 318.5729  41.4907 14.99594768520033
QB50P1                  
1 40025U 14033R   24014.80691504  .00010845  00000+0  95140-3 0  9995
2 40025  98.0236 331.0473 0009475 318.7039  41.3464 14.96779675520277
QB50P2                  
1 40032U 14033Y   24014.32166020  .00008950  00000+0  80712-3 0  9993
2 40032  97.9909 323.2010 0009080 319.6795  40.3751 14.95757238519503
PERSEUS-M2              
1 40037U 14033AD  24014.76672275  .00003583  00000+0  38178-3 0  9996
2 40037  97.9200 305.2203 0013381 351.2375   8.8607 14.89476600519335
PERSEUS-M1              
1 40039U 14033AF  24014.76562536  .00003462  00000+0  37168-3 0  9990
2 40039  97.9026 301.6988 0013183 350.6139   9.4829 14.89193879519207
POLYITAN-1              
1 40042U 14033AJ  24014.83472286  .00014541  00000+0  12178-2 0  9997
2 40042  98.0367 333.6893 0010183 312.1267  47.9088 14.98500845520204
TIGRISAT                
1 40043U 14033AK  24014.40847268  .00003881  00000+0  53317-3 0  9993
2 40043  97.6762 184.1247 0057806  87.3559 273.4267 14.77733469514596
AEROCUBE 6A             
1 40045U 14033AM  24014.46819222  .00006484  00000+0  82097-3 0  9999
2 40045  97.6576 194.4307 0053657  68.9907 291.7034 14.81083690514879
AEROCUBE 6B             
1 40046U 14033AN  24014.45715111  .00006915  00000+0  85915-3 0  9992
2 40046  97.6536 193.0041 0052227  65.3907 295.2735 14.81901810514914
UKUBE-1                 
1 40074U 14037F   24014.72195408  .00010276  00000+0  10444-2 0  9997
2 40074  98.3410 295.5818 0002986 197.2378 162.8737 14.91003724515749
BRITE-PL2 (HEWELIUSZ)   
1 40119U 14049B   24014.58412380  .00003621  00000+0  40184-3 0  9996
2 40119  97.8818 115.1502 0016864 149.4011 210.8192 14.87761774509580
GRIFEX                  
1 40379U 15003D   24014.73574549  .00264082  00000+0  14653-2 0  9999
2 40379  99.0828  12.8400 0032078 241.6600 118.1424 15.78060458496245
CP10 (EXOCUBE)          
1 40380U 15003E   24014.52648566  .00074309  00000+0  11988-2 0  9998
2 40380  99.1011 356.8510 0065151 298.7664  60.7048 15.50208899495242
EXACTVIEW 9             
1 40936U 15052G   24006.07845669  .00002815  00000+0  28083-3 0  9991
2 40936   6.0026  75.6655 0010627 288.6842  71.2132 14.79620840447345
AEROCUBE 5C             
1 40965U 15058B   24014.66118239  .00004268  00000+0  43317-3 0  9990
2 40965  64.7718 115.3773 0178714 357.0170   2.9853 14.81035985234131
AEROCUBE 7              
1 40966U 15058C   24014.57635664  .00005552  00000+0  54420-3 0  9991
2 40966  64.7702 110.6479 0175107 356.7414   3.2536 14.82405739234171
VELOX-II                
1 41171U 15077F   24014.61069408  .00060321  00000+0  13560-2 0  9997
2 41171  14.9889 177.4546 0004221 349.8799  10.1441 15.41451072447700
HORYU-4                 
1 41340U 16012D   24014.08981036  .00013143  00000+0  73907-3 0  9998
2 41340  31.0027 262.8609 0010439 205.0325 154.9808 15.12023681434627
E-ST@R-II               
1 41459U 16025D   24014.74697359  .00099096  00000+0  14999-2 0  9994
2 41459  98.1529 245.2100 0069932  72.0152 288.8704 15.51488114425432
RAVAN                   
1 41849U 16067B   24014.46214218  .00015356  00000+0  94450-3 0  9999
2 41849  98.0522 183.6494 0014248 191.4632 168.6273 15.10052627392606
CELTEE 1                
1 41850U 16067C   24014.42040914  .00007128  00000+0  51868-3 0  9991
2 41850  98.0838 176.4090 0001362  53.4521 306.6829 15.04132280392144
OPTICUBE 04             
1 41851U 16067D   24014.39678042  .00005475  00000+0  43029-3 0  9990
2 41851  98.0469 173.2233 0015461 210.5824 149.4499 15.01225917392004
AEROCUBE 8D             
1 41852U 16067E   24014.37896418  .00009410  00000+0  66882-3 0  9993
2 41852  98.0899 175.7728 0004366 267.5425  92.5300 15.04915556392095
AEROCUBE 8C             
1 41853U 16067F   24014.38567619  .00010176  00000+0  72402-3 0  9999
2 41853  98.0699 174.7576 0008200 196.1502 163.9463 15.04831262392081
PROMETHEUS 2-1          
1 41854U 16067G   24014.42749826  .00017726  00000+0  10614-2 0  9991
2 41854  98.0858 179.9512 0014000 222.2856 137.7294 15.11000030392321
PROMETHEUS 2-3          
1 41855U 16067H   24014.42266285  .00017535  00000+0  10511-2 0  9999
2 41855  98.0780 179.5873 0011821 232.3774 127.6381 15.10987314392324
DIDO-2                  
1 42000U 17008BE  24014.10609296  .00057392  00000+0  90109-3 0  9993
2 42000  97.1702  73.2064 0004477   1.4461 358.6805 15.53469571384516
